{
  "type": "FeatureCollection",
  "features": [
    {
      "type": "Feature",
      "properties": {
        "norad_id": 37562,
        "name": "IRIDIUM 33 DEB",
        "group": "iridium-33-debris",
        "lat": -21.015171224818282,
        "lon": 41.67938764114207,
        "alt_km": 720.6405015172813,
        "timestamp": "2025-12-13T22:39:30.096279+00:00",
        "meta_object_name": "IRIDIUM 33 DEB",
        "meta_object_id": "1997-051XX",
        "meta_epoch": "2025-12-12T22:34:29.180064",
        "meta_mean_motion": 14.56479735,
        "meta_eccentricity": 0.00267072,
        "meta_inclination": 86.3742,
        "meta_ra_of_asc_node": 43.5127,
        "meta_arg_of_pericenter": 107.2211,
        "meta_mean_anomaly": 13.868,
        "meta_ephemeris_type": 0,
        "meta_classification_type": "U",
        "meta_norad_cat_id": 37562,
        "meta_element_set_no": 999,
        "meta_rev_at_epoch": 86331,
        "meta_bstar": 0.0015437368,
        "meta_mean_motion_dot": 6.916e-05,
        "meta_mean_motion_ddot": 0,
        "tle_line1": "1 37562U 97051XX  25346.94061551  .00006916  00000+0  15437-2 0  9999",
        "tle_line2": "2 37562  86.3742  43.5127 0026707 107.2211  13.8680 14.56479735863311"
      },
      "geometry": {
        "type": "Point",
        "coordinates": [
          41.67938764114207,
          -21.015171224818282
        ]
      }
    },
    {
      "type": "Feature",
      "properties": {
        "norad_id": 37565,
        "name": "IRIDIUM 33 DEB",
        "group": "iridium-33-debris",
        "lat": 80.65828469425377,
        "lon": 166.21958629555937,
        "alt_km": 703.1143239350222,
        "timestamp": "2025-12-13T22:39:30.096290+00:00",
        "meta_object_name": "IRIDIUM 33 DEB",
        "meta_object_id": "1997-051YA",
        "meta_epoch": "2025-12-12T08:09:12.075840",
        "meta_mean_motion": 14.51514759,
        "meta_eccentricity": 0.00152083,
        "meta_inclination": 86.3497,
        "meta_ra_of_asc_node": 9.7522,
        "meta_arg_of_pericenter": 85.3197,
        "meta_mean_anomaly": 274.9745,
        "meta_ephemeris_type": 0,
        "meta_classification_type": "U",
        "meta_norad_cat_id": 37565,
        "meta_element_set_no": 999,
        "meta_rev_at_epoch": 65831,
        "meta_bstar": 0.00084222029,
        "meta_mean_motion_dot": 3.391e-05,
        "meta_mean_motion_ddot": 0,
        "tle_line1": "1 37565U 97051YA  25346.33972310  .00003391  00000+0  84222-3 0  9992",
        "tle_line2": "2 37565  86.3497   9.7522 0015208  85.3197 274.9745 14.51514759658312"
      },
      "geometry": {
        "type": "Point",
        "coordinates": [
          166.21958629555937,
          80.65828469425377
        ]
      }
    },
    {
      "type": "Feature",
      "properties": {
        "norad_id": 38017,
        "name": "IRIDIUM 33 DEB",
        "group": "iridium-33-debris",
        "lat": 3.064213428203286,
        "lon": -14.49374622354445,
        "alt_km": 717.0448279270631,
        "timestamp": "2025-12-13T22:39:30.096301+00:00",
        "meta_object_name": "IRIDIUM 33 DEB",
        "meta_object_id": "1997-051YD",
        "meta_epoch": "2025-12-09T11:46:33.949344",
        "meta_mean_motion": 14.48798991,
        "meta_eccentricity": 0.0092342,
        "meta_inclination": 86.3421,
        "meta_ra_of_asc_node": 167.6378,
        "meta_arg_of_pericenter": 113.8595,
        "meta_mean_anomaly": 247.2321,
        "meta_ephemeris_type": 0,
        "meta_classification_type": "U",
        "meta_norad_cat_id": 38017,
        "meta_element_set_no": 999,
        "meta_rev_at_epoch": 61355,
        "meta_bstar": 0.0067532519,
        "meta_mean_motion_dot": 0.00027013,
        "meta_mean_motion_ddot": 0,
        "tle_line1": "1 38017U 97051YD  25343.49067071  .00027013  00000+0  67533-2 0  9990",
        "tle_line2": "2 38017  86.3421 167.6378 0092342 113.8595 247.2321 14.48798991613556"
      },
      "geometry": {
        "type": "Point",
        "coordinates": [
          -14.49374622354445,
          3.064213428203286
        ]
      }
    },
    {
      "type": "Feature",
      "properties": {
        "norad_id": 38022,
        "name": "IRIDIUM 33 DEB",
        "group": "iridium-33-debris",
        "lat": -75.76373369331529,
        "lon": 1.0126550610717278,
        "alt_km": 779.5870534909109,
        "timestamp": "2025-12-13T22:39:30.096311+00:00",
        "meta_object_name": "IRIDIUM 33 DEB",
        "meta_object_id": "1997-051YJ",
        "meta_epoch": "2025-12-12T08:41:14.041248",
        "meta_mean_motion": 14.41246239,
        "meta_eccentricity": 0.00465932,
        "meta_inclination": 86.2691,
        "meta_ra_of_asc_node": 16.6083,
        "meta_arg_of_pericenter": 51.6762,
        "meta_mean_anomaly": 308.8611,
        "meta_ephemeris_type": 0,
        "meta_classification_type": "U",
        "meta_norad_cat_id": 38022,
        "meta_element_set_no": 999,
        "meta_rev_at_epoch": 69188,
        "meta_bstar": 0.001535131,
        "meta_mean_motion_dot": 5.042e-05,
        "meta_mean_motion_ddot": 0,
        "tle_line1": "1 38022U 97051YJ  25346.36196807  .00005042  00000+0  15351-2 0  9994",
        "tle_line2": "2 38022  86.2691  16.6083 0046593  51.6762 308.8611 14.41246239691882"
      },
      "geometry": {
        "type": "Point",
        "coordinates": [
          1.0126550610717278,
          -75.76373369331529
        ]
      }
    },
    {
      "type": "Feature",
      "properties": {
        "norad_id": 38028,
        "name": "IRIDIUM 33 DEB",
        "group": "iridium-33-debris",
        "lat": 86.20565643767972,
        "lon": 75.4270311736246,
        "alt_km": 711.5588353222911,
        "timestamp": "2025-12-13T22:39:30.096321+00:00",
        "meta_object_name": "IRIDIUM 33 DEB",
        "meta_object_id": "1997-051YQ",
        "meta_epoch": "2025-12-09T08:38:54.868992",
        "meta_mean_motion": 14.46171938,
        "meta_eccentricity": 0.00301795,
        "meta_inclination": 86.3256,
        "meta_ra_of_asc_node": 1.7381,
        "meta_arg_of_pericenter": 131.6061,
        "meta_mean_anomaly": 228.7734,
        "meta_ephemeris_type": 0,
        "meta_classification_type": "U",
        "meta_norad_cat_id": 38028,
        "meta_element_set_no": 999,
        "meta_rev_at_epoch": 65446,
        "meta_bstar": 0.0004464513,
        "meta_mean_motion_dot": 1.624e-05,
        "meta_mean_motion_ddot": 0,
        "tle_line1": "1 38028U 97051YQ  25343.36035728  .00001624  00000+0  44645-3 0  9992",
        "tle_line2": "2 38028  86.3256   1.7381 0030179 131.6061 228.7734 14.46171938654463"
      },
      "geometry": {
        "type": "Point",
        "coordinates": [
          75.4270311736246,
          86.20565643767972
        ]
      }
    },
    {
      "type": "Feature",
      "properties": {
        "norad_id": 38228,
        "name": "IRIDIUM 33 DEB",
        "group": "iridium-33-debris",
        "lat": -57.88838252154792,
        "lon": 42.030992868899816,
        "alt_km": 828.3695210442911,
        "timestamp": "2025-12-13T22:39:30.096332+00:00",
        "meta_object_name": "IRIDIUM 33 DEB",
        "meta_object_id": "1997-051ZC",
        "meta_epoch": "2025-12-12T22:17:01.277664",
        "meta_mean_motion": 14.2726748,
        "meta_eccentricity": 0.00642641,
        "meta_inclination": 86.2947,
        "meta_ra_of_asc_node": 48.3893,
        "meta_arg_of_pericenter": 188.8079,
        "meta_mean_anomaly": 297.4121,
        "meta_ephemeris_type": 0,
        "meta_classification_type": "U",
        "meta_norad_cat_id": 38228,
        "meta_element_set_no": 999,
        "meta_rev_at_epoch": 84784,
        "meta_bstar": 0.00045109336,
        "meta_mean_motion_dot": 1.146e-05,
        "meta_mean_motion_ddot": 0,
        "tle_line1": "1 38228U 97051ZC  25346.92848701  .00001146  00000+0  45109-3 0  9997",
        "tle_line2": "2 38228  86.2947  48.3893 0064264 188.8079 297.4121 14.27267480847847"
      },
      "geometry": {
        "type": "Point",
        "coordinates": [
          42.030992868899816,
          -57.88838252154792
        ]
      }
    },
    {
      "type": "Feature",
      "properties": {
        "norad_id": 38241,
        "name": "IRIDIUM 33 DEB",
        "group": "iridium-33-debris",
        "lat": -17.70278135194944,
        "lon": -11.107959764561853,
        "alt_km": 714.6441989030172,
        "timestamp": "2025-12-13T22:39:30.096342+00:00",
        "meta_object_name": "IRIDIUM 33 DEB",
        "meta_object_id": "1997-051ZR",
        "meta_epoch": "2025-12-13T06:13:58.226016",
        "meta_mean_motion": 14.54873749,
        "meta_eccentricity": 0.00056326,
        "meta_inclination": 86.3232,
        "meta_ra_of_asc_node": 350.3699,
        "meta_arg_of_pericenter": 72.2147,
        "meta_mean_anomaly": 287.9674,
        "meta_ephemeris_type": 0,
        "meta_classification_type": "U",
        "meta_norad_cat_id": 38241,
        "meta_element_set_no": 999,
        "meta_rev_at_epoch": 60208,
        "meta_bstar": 0.0012492013,
        "meta_mean_motion_dot": 5.385e-05,
        "meta_mean_motion_ddot": 0,
        "tle_line1": "1 38241U 97051ZR  25347.25970169  .00005385  00000+0  12492-2 0  9990",
        "tle_line2": "2 38241  86.3232 350.3699 0005632  72.2147 287.9674 14.54873749602089"
      },
      "geometry": {
        "type": "Point",
        "coordinates": [
          -11.107959764561853,
          -17.70278135194944
        ]
      }
    }
  ]
}